[
  {
    "COMMENT": "GENERATED VIA SPACETRACK.ORG API",
    "ORIGINATOR": "18 SPCS",
    "NORAD_CAT_ID": "26997",
    "OBJECT_NAME": "JASON",
    "OBJECT_TYPE": "PAYLOAD",
    "CLASSIFICATION_TYPE": "U",
    "INTLDES": "01055A",
    "EPOCH": "2023-06-02 13:07:04",
    "EPOCH_MICROSECONDS": "35936",
    "MEAN_MOTION": "12.84021784",
    "ECCENTRICITY": "0.0006864",
    "INCLINATION": "66.039",
    "RA_OF_ASC_NODE": "233.7862",
    "ARG_OF_PERICENTER": "264.9588",
    "MEAN_ANOMALY": "186.7715",
    "EPHEMERIS_TYPE": "0",
    "ELEMENT_SET_NO": "999",
    "REV_AT_EPOCH": "603",
    "BSTAR": "0.0000011763",
    "MEAN_MOTION_DOT": "-0.00000061",
    "MEAN_MOTION_DDOT": "0",
    "FILE": "3923342",
    "TLE_LINE0": "0 JASON",
    "TLE_LINE1": "1 26997U 01055A   23153.54657449 -.00000061  00000-0  11763-5 0  9993",
    "TLE_LINE2": "2 26997  66.0390 233.7862 0006864 264.9588 186.7715 12.84021784  6037",
    "OBJECT_ID": "2001-055A",
    "OBJECT_NUMBER": "26997",
    "SEMIMAJOR_AXIS": "7703.479",
    "PERIOD": "112.148",
    "APOGEE": "1330.632",
    "PERIGEE": "1320.057",
    "DECAYED": "0"
  },
  {
    "COMMENT": "GENERATED VIA SPACETRACK.ORG API",
    "ORIGINATOR": "18 SPCS",
    "NORAD_CAT_ID": "26997",
    "OBJECT_NAME": "JASON",
    "OBJECT_TYPE": "PAYLOAD",
    "CLASSIFICATION_TYPE": "U",
    "INTLDES": "01055A",
    "EPOCH": "2023-06-02 17:16:03",
    "EPOCH_MICROSECONDS": "23616",
    "MEAN_MOTION": "12.84021784",
    "ECCENTRICITY": "0.0006863",
    "INCLINATION": "66.0389",
    "RA_OF_ASC_NODE": "233.425",
    "ARG_OF_PERICENTER": "264.977",
    "MEAN_ANOMALY": "265.9241",
    "EPHEMERIS_TYPE": "0",
    "ELEMENT_SET_NO": "999",
    "REV_AT_EPOCH": "605",
    "BSTAR": "0.0000024943",
    "MEAN_MOTION_DOT": "-0.00000061",
    "MEAN_MOTION_DDOT": "0",
    "FILE": "3923570",
    "TLE_LINE0": "0 JASON",
    "TLE_LINE1": "1 26997U 01055A   23153.71947944 -.00000061  00000-0  24943-5 0  9998",
    "TLE_LINE2": "2 26997  66.0389 233.4250 0006863 264.9770 265.9241 12.84021784  6051",
    "OBJECT_ID": "2001-055A",
    "OBJECT_NUMBER": "26997",
    "SEMIMAJOR_AXIS": "7703.479",
    "PERIOD": "112.148",
    "APOGEE": "1330.631",
    "PERIGEE": "1320.057",
    "DECAYED": "0"
  },
  {
    "COMMENT": "GENERATED VIA SPACETRACK.ORG API",
    "ORIGINATOR": "18 SPCS",
    "NORAD_CAT_ID": "26997",
    "OBJECT_NAME": "JASON",
    "OBJECT_TYPE": "PAYLOAD",
    "CLASSIFICATION_TYPE": "U",
    "INTLDES": "01055A",
    "EPOCH": "2023-06-03 13:26:29",
    "EPOCH_MICROSECONDS": "754240",
    "MEAN_MOTION": "12.84021807",
    "ECCENTRICITY": "0.0006877",
    "INCLINATION": "66.0388",
    "RA_OF_ASC_NODE": "231.6693",
    "ARG_OF_PERICENTER": "265.0146",
    "MEAN_ANOMALY": "191.1008",
    "EPHEMERIS_TYPE": "0",
    "ELEMENT_SET_NO": "999",
    "REV_AT_EPOCH": "640",
    "BSTAR": "0.000017118",
    "MEAN_MOTION_DOT": "-0.00000057",
    "MEAN_MOTION_DDOT": "0",
    "FILE": "3923834",
    "TLE_LINE0": "0 JASON",
    "TLE_LINE1": "1 26997U 01055A   23154.56006660 -.00000057  00000-0  17118-4 0  9993",
    "TLE_LINE2": "2 26997  66.0388 231.6693 0006877 265.0146 191.1008 12.84021807  6401",
    "OBJECT_ID": "2001-055A",
    "OBJECT_NUMBER": "26997",
    "SEMIMAJOR_AXIS": "7703.479",
    "PERIOD": "112.148",
    "APOGEE": "1330.642",
    "PERIGEE": "1320.046",
    "DECAYED": "0"
  },
  {
    "COMMENT": "GENERATED VIA SPACETRACK.ORG API",
    "ORIGINATOR": "18 SPCS",
    "NORAD_CAT_ID": "26997",
    "OBJECT_NAME": "JASON",
    "OBJECT_TYPE": "PAYLOAD",
    "CLASSIFICATION_TYPE": "U",
    "INTLDES": "01055A",
    "EPOCH": "2023-06-03 15:22:42",
    "EPOCH_MICROSECONDS": "265344",
    "MEAN_MOTION": "12.84021799",
    "ECCENTRICITY": "0.0006877",
    "INCLINATION": "66.0388",
    "RA_OF_ASC_NODE": "231.5007",
    "ARG_OF_PERICENTER": "265.0222",
    "MEAN_ANOMALY": "204.0921",
    "EPHEMERIS_TYPE": "0",
    "ELEMENT_SET_NO": "999",
    "REV_AT_EPOCH": "617",
    "BSTAR": "0.000013978",
    "MEAN_MOTION_DOT": "-0.00000058",
    "MEAN_MOTION_DDOT": "0",
    "FILE": "3924324",
    "TLE_LINE0": "0 JASON",
    "TLE_LINE1": "1 26997U 01055A   23154.64076696 -.00000058  00000-0  13978-4 0  9999",
    "TLE_LINE2": "2 26997  66.0388 231.5007 0006877 265.0222 204.0921 12.84021799  6176",
    "OBJECT_ID": "2001-055A",
    "OBJECT_NUMBER": "26997",
    "SEMIMAJOR_AXIS": "7703.479",
    "PERIOD": "112.148",
    "APOGEE": "1330.642",
    "PERIGEE": "1320.046",
    "DECAYED": "0"
  },
  {
    "COMMENT": "GENERATED VIA SPACETRACK.ORG API",
    "ORIGINATOR": "18 SPCS",
    "NORAD_CAT_ID": "26997",
    "OBJECT_NAME": "JASON",
    "OBJECT_TYPE": "PAYLOAD",
    "CLASSIFICATION_TYPE": "U",
    "INTLDES": "01055A",
    "EPOCH": "2023-06-04 13:45:09",
    "EPOCH_MICROSECONDS": "753984",
    "MEAN_MOTION": "12.84021775",
    "ECCENTRICITY": "0.0006887",
    "INCLINATION": "66.0388",
    "RA_OF_ASC_NODE": "229.5535",
    "ARG_OF_PERICENTER": "265.0771",
    "MEAN_ANOMALY": "192.9772",
    "EPHEMERIS_TYPE": "0",
    "ELEMENT_SET_NO": "999",
    "REV_AT_EPOCH": "629",
    "BSTAR": "0.0000027389",
    "MEAN_MOTION_DOT": "-0.00000061",
    "MEAN_MOTION_DDOT": "0",
    "FILE": "3924842",
    "TLE_LINE0": "0 JASON",
    "TLE_LINE1": "1 26997U 01055A   23155.57302956 -.00000061  00000-0  27389-5 0  9999",
    "TLE_LINE2": "2 26997  66.0388 229.5535 0006887 265.0771 192.9772 12.84021775  6295",
    "OBJECT_ID": "2001-055A",
    "OBJECT_NUMBER": "26997",
    "SEMIMAJOR_AXIS": "7703.479",
    "PERIOD": "112.148",
    "APOGEE": "1330.650",
    "PERIGEE": "1320.039",
    "DECAYED": "0"
  },
  {
    "COMMENT": "GENERATED VIA SPACETRACK.ORG API",
    "ORIGINATOR": "18 SPCS",
    "NORAD_CAT_ID": "26997",
    "OBJECT_NAME": "JASON",
    "OBJECT_TYPE": "PAYLOAD",
    "CLASSIFICATION_TYPE": "U",
    "INTLDES": "01055A",
    "EPOCH": "2023-06-05 14:04:38",
    "EPOCH_MICROSECONDS": "753760",
    "MEAN_MOTION": "12.84021768",
    "ECCENTRICITY": "0.0006897",
    "INCLINATION": "66.0387",
    "RA_OF_ASC_NODE": "227.4365",
    "ARG_OF_PERICENTER": "265.1484",
    "MEAN_ANOMALY": "197.4664",
    "EPHEMERIS_TYPE": "0",
    "ELEMENT_SET_NO": "999",
    "REV_AT_EPOCH": "642",
    "BSTAR": "-0.0000016373",
    "MEAN_MOTION_DOT": "-0.00000062",
    "MEAN_MOTION_DDOT": "0",
    "FILE": "3925691",
    "TLE_LINE0": "0 JASON",
    "TLE_LINE1": "1 26997U 01055A   23156.58655965 -.00000062  00000-0 -16373-5 0  9995",
    "TLE_LINE2": "2 26997  66.0387 227.4365 0006897 265.1484 197.4664 12.84021768  6422",
    "OBJECT_ID": "2001-055A",
    "OBJECT_NUMBER": "26997",
    "SEMIMAJOR_AXIS": "7703.479",
    "PERIOD": "112.148",
    "APOGEE": "1330.657",
    "PERIGEE": "1320.031",
    "DECAYED": "0"
  },
  {
    "COMMENT": "GENERATED VIA SPACETRACK.ORG API",
    "ORIGINATOR": "18 SPCS",
    "NORAD_CAT_ID": "26997",
    "OBJECT_NAME": "JASON",
    "OBJECT_TYPE": "PAYLOAD",
    "CLASSIFICATION_TYPE": "U",
    "INTLDES": "01055A",
    "EPOCH": "2023-06-06 12:27:34",
    "EPOCH_MICROSECONDS": "661952",
    "MEAN_MOTION": "12.8402179",
    "ECCENTRICITY": "0.0006898",
    "INCLINATION": "66.0386",
    "RA_OF_ASC_NODE": "225.4886",
    "ARG_OF_PERICENTER": "265.1911",
    "MEAN_ANOMALY": "187.8843",
    "EPHEMERIS_TYPE": "0",
    "ELEMENT_SET_NO": "999",
    "REV_AT_EPOCH": "654",
    "BSTAR": "0.000016096",
    "MEAN_MOTION_DOT": "-0.00000058",
    "MEAN_MOTION_DDOT": "0",
    "FILE": "3926325",
    "TLE_LINE0": "0 JASON",
    "TLE_LINE1": "1 26997U 01055A   23157.51915118 -.00000058  00000-0  16096-4 0  9993",
    "TLE_LINE2": "2 26997  66.0386 225.4886 0006898 265.1911 187.8843 12.84021790  6543",
    "OBJECT_ID": "2001-055A",
    "OBJECT_NUMBER": "26997",
    "SEMIMAJOR_AXIS": "7703.479",
    "PERIOD": "112.148",
    "APOGEE": "1330.658",
    "PERIGEE": "1320.030",
    "DECAYED": "0"
  },
  {
    "COMMENT": "GENERATED VIA SPACETRACK.ORG API",
    "ORIGINATOR": "18 SPCS",
    "NORAD_CAT_ID": "26997",
    "OBJECT_NAME": "JASON",
    "OBJECT_TYPE": "PAYLOAD",
    "CLASSIFICATION_TYPE": "U",
    "INTLDES": "01055A",
    "EPOCH": "2023-06-06 14:23:32",
    "EPOCH_MICROSECONDS": "472096",
    "MEAN_MOTION": "12.84021769",
    "ECCENTRICITY": "0.0006917",
    "INCLINATION": "66.0387",
    "RA_OF_ASC_NODE": "225.3204",
    "ARG_OF_PERICENTER": "265.2111",
    "MEAN_ANOMALY": "200.0767",
    "EPHEMERIS_TYPE": "0",
    "ELEMENT_SET_NO": "999",
    "REV_AT_EPOCH": "655",
    "BSTAR": "0.0000010302",
    "MEAN_MOTION_DOT": "-0.00000061",
    "MEAN_MOTION_DDOT": "0",
    "FILE": "3926571",
    "TLE_LINE0": "0 JASON",
    "TLE_LINE1": "1 26997U 01055A   23157.59968139 -.00000061  00000-0  10302-5 0  9991",
    "TLE_LINE2": "2 26997  66.0387 225.3204 0006917 265.2111 200.0767 12.84021769  6552",
    "OBJECT_ID": "2001-055A",
    "OBJECT_NUMBER": "26997",
    "SEMIMAJOR_AXIS": "7703.479",
    "PERIOD": "112.148",
    "APOGEE": "1330.673",
    "PERIGEE": "1320.016",
    "DECAYED": "0"
  },
  {
    "COMMENT": "GENERATED VIA SPACETRACK.ORG API",
    "ORIGINATOR": "18 SPCS",
    "NORAD_CAT_ID": "26997",
    "OBJECT_NAME": "JASON",
    "OBJECT_TYPE": "PAYLOAD",
    "CLASSIFICATION_TYPE": "U",
    "INTLDES": "01055A",
    "EPOCH": "2023-06-07 08:55:25",
    "EPOCH_MICROSECONDS": "464000",
    "MEAN_MOTION": "12.84021787",
    "ECCENTRICITY": "0.0006939",
    "INCLINATION": "66.0385",
    "RA_OF_ASC_NODE": "223.7077",
    "ARG_OF_PERICENTER": "265.2568",
    "MEAN_ANOMALY": "168.8858",
    "EPHEMERIS_TYPE": "0",
    "ELEMENT_SET_NO": "999",
    "REV_AT_EPOCH": "665",
    "BSTAR": "0.00001505",
    "MEAN_MOTION_DOT": "-0.00000058",
    "MEAN_MOTION_DDOT": "0",
    "FILE": "3927174",
    "TLE_LINE0": "0 JASON",
    "TLE_LINE1": "1 26997U 01055A   23158.37182250 -.00000058  00000-0  15050-4 0  9990",
    "TLE_LINE2": "2 26997  66.0385 223.7077 0006939 265.2568 168.8858 12.84021787  6653",
    "OBJECT_ID": "2001-055A",
    "OBJECT_NUMBER": "26997",
    "SEMIMAJOR_AXIS": "7703.479",
    "PERIOD": "112.148",
    "APOGEE": "1330.690",
    "PERIGEE": "1319.999",
    "DECAYED": "0"
  }
]